start=new Date('2022-12-16T00:00:00.000Z').valueOf();
sats=[{"MEAN_MOTION_DDOT":"0.0000000000000","SITE":"AFETR","PERIOD":"95.437","RA_OF_ASC_NODE":"51.4813","MEAN_ELEMENT_THEORY":"SGP4","PERIAPSIS":"538.081","INCLINATION":"53.2181","OBJECT_ID":"2022-053Q","TLE_LINE1":"1 52670U 22053Q   22349.66208780  .00000717  00000-0  63149-4 0  9991","ECCENTRICITY":"0.00023790","LAUNCH_DATE":"2022-05-18","MEAN_MOTION":"15.08846127","RCS_SIZE":"LARGE","TIME_SYSTEM":"UTC","CLASSIFICATION_TYPE":"U","MEAN_ANOMALY":"331.5941","NORAD_CAT_ID":"52670","REF_FRAME":"TEME","COUNTRY_CODE":"US","CENTER_NAME":"EARTH","GP_ID":"220530177","TLE_LINE2":"2 52670  53.2181  51.4813 0002379  28.5181 331.5941 15.08846127 32902","OBJECT_TYPE":"PAYLOAD","DECAY_DATE":null,"APOAPSIS":"541.372","FILE":"3702726","MEAN_MOTION_DOT":"0.00000717","REV_AT_EPOCH":"3290","ARG_OF_PERICENTER":"28.5181","EPHEMERIS_TYPE":"0","EPOCH":"2022-12-15T15:53:24.385920","BSTAR":"0.00006314900000","OBJECT_NAME":"STARLINK-4075","SEMIMAJOR_AXIS":"6917.862","ELEMENT_SET_NO":"999"},{"RA_OF_ASC_NODE":"51.5657","PERIOD":"95.437","MEAN_MOTION_DDOT":"0.0000000000000","SITE":"AFETR","INCLINATION":"53.2163","PERIAPSIS":"538.024","MEAN_ELEMENT_THEORY":"SGP4","MEAN_MOTION":"15.08856359","RCS_SIZE":"LARGE","ECCENTRICITY":"0.00024160","TLE_LINE1":"1 52671U 22053R   22349.64274063  .00009857  00000-0  63627-3 0  9991","LAUNCH_DATE":"2022-05-18","OBJECT_ID":"2022-053R","MEAN_ANOMALY":"323.6005","CLASSIFICATION_TYPE":"U","TIME_SYSTEM":"UTC","CENTER_NAME":"EARTH","COUNTRY_CODE":"US","REF_FRAME":"TEME","NORAD_CAT_ID":"52671","OBJECT_TYPE":"PAYLOAD","TLE_LINE2":"2 52671  53.2163  51.5657 0002416  36.5152 323.6005 15.08856359 32898","GP_ID":"220528926","ARG_OF_PERICENTER":"36.5152","EPHEMERIS_TYPE":"0","REV_AT_EPOCH":"3289","MEAN_MOTION_DOT":"0.00009857","FILE":"3702726","APOAPSIS":"541.367","DECAY_DATE":null,"ELEMENT_SET_NO":"999","SEMIMAJOR_AXIS":"6917.830","OBJECT_NAME":"STARLINK-4071","BSTAR":"0.00063627000000","EPOCH":"2022-12-15T15:25:32.790432"},{"PERIOD":"95.438","RA_OF_ASC_NODE":"51.8166","MEAN_MOTION_DDOT":"0.0000000000000","SITE":"AFETR","INCLINATION":"53.2178","MEAN_ELEMENT_THEORY":"SGP4","PERIAPSIS":"537.882","MEAN_MOTION":"15.08838583","RCS_SIZE":"LARGE","ECCENTRICITY":"0.00027000","TLE_LINE1":"1 52672U 22053S   22349.58753835 -.00000037  00000-0  15782-4 0  9996","LAUNCH_DATE":"2022-05-18","OBJECT_ID":"2022-053S","MEAN_ANOMALY":"334.2213","CLASSIFICATION_TYPE":"U","TIME_SYSTEM":"UTC","CENTER_NAME":"EARTH","COUNTRY_CODE":"US","REF_FRAME":"TEME","NORAD_CAT_ID":"52672","OBJECT_TYPE":"PAYLOAD","GP_ID":"220529176","TLE_LINE2":"2 52672  53.2178  51.8166 0002700  25.8914 334.2213 15.08838583 32883","REV_AT_EPOCH":"3288","ARG_OF_PERICENTER":"25.8914","EPHEMERIS_TYPE":"0","FILE":"3702726","MEAN_MOTION_DOT":"-0.00000037","APOAPSIS":"541.618","DECAY_DATE":null,"SEMIMAJOR_AXIS":"6917.885","ELEMENT_SET_NO":"999","BSTAR":"0.00001578200000","OBJECT_NAME":"STARLINK-4073","EPOCH":"2022-12-15T14:06:03.313440"},{"DECAY_DATE":null,"APOAPSIS":"541.540","FILE":"3702025","MEAN_MOTION_DOT":"0.00001890","EPHEMERIS_TYPE":"0","ARG_OF_PERICENTER":"27.3974","REV_AT_EPOCH":"3288","EPOCH":"2022-12-15T13:39:33.084288","OBJECT_NAME":"STARLINK-3976","BSTAR":"0.00013678000000","ELEMENT_SET_NO":"999","SEMIMAJOR_AXIS":"6917.860","NORAD_CAT_ID":"52673","REF_FRAME":"TEME","CENTER_NAME":"EARTH","COUNTRY_CODE":"US","TLE_LINE2":"2 52673  53.2195  51.8932 0002624  27.3974 332.7156 15.08846690 32889","GP_ID":"220488069","OBJECT_TYPE":"PAYLOAD","OBJECT_ID":"2022-053T","TLE_LINE1":"1 52673U 22053T   22349.56913292  .00001890  00000-0  13678-3 0  9998","ECCENTRICITY":"0.00026240","LAUNCH_DATE":"2022-05-18","MEAN_MOTION":"15.08846690","RCS_SIZE":"LARGE","TIME_SYSTEM":"UTC","CLASSIFICATION_TYPE":"U","MEAN_ANOMALY":"332.7156","MEAN_MOTION_DDOT":"0.0000000000000","SITE":"AFETR","RA_OF_ASC_NODE":"51.8932","PERIOD":"95.437","MEAN_ELEMENT_THEORY":"SGP4","PERIAPSIS":"537.910","INCLINATION":"53.2195"},{"OBJECT_TYPE":"PAYLOAD","GP_ID":"220529677","TLE_LINE2":"2 52674  53.2162  51.5303 0002378  29.9021 330.2107 15.08847518 32902","REF_FRAME":"TEME","NORAD_CAT_ID":"52674","COUNTRY_CODE":"US","CENTER_NAME":"EARTH","OBJECT_NAME":"STARLINK-3936","BSTAR":"0.00021389000000","EPOCH":"2022-12-15T15:36:07.695648","ELEMENT_SET_NO":"999","SEMIMAJOR_AXIS":"6917.857","MEAN_MOTION_DOT":"0.00003118","FILE":"3702726","DECAY_DATE":null,"APOAPSIS":"541.367","EPHEMERIS_TYPE":"0","ARG_OF_PERICENTER":"29.9021","REV_AT_EPOCH":"3290","INCLINATION":"53.2162","MEAN_ELEMENT_THEORY":"SGP4","PERIAPSIS":"538.077","MEAN_MOTION_DDOT":"0.0000000000000","SITE":"AFETR","PERIOD":"95.437","RA_OF_ASC_NODE":"51.5303","TIME_SYSTEM":"UTC","MEAN_ANOMALY":"330.2107","CLASSIFICATION_TYPE":"U","ECCENTRICITY":"0.00023780","TLE_LINE1":"1 52674U 22053U   22349.65008907  .00003118  00000-0  21389-3 0  9990","LAUNCH_DATE":"2022-05-18","OBJECT_ID":"2022-053U","RCS_SIZE":"LARGE","MEAN_MOTION":"15.08847518"},{"RCS_SIZE":"LARGE","MEAN_MOTION":"15.08841652","OBJECT_ID":"2022-053V","TLE_LINE1":"1 52675U 22053V   22349.63261739  .00001851  00000-0  13437-3 0  9990","ECCENTRICITY":"0.00028690","LAUNCH_DATE":"2022-05-18","CLASSIFICATION_TYPE":"U","MEAN_ANOMALY":"334.9082","TIME_SYSTEM":"UTC","PERIOD":"95.437","RA_OF_ASC_NODE":"41.5980","SITE":"AFETR","MEAN_MOTION_DDOT":"0.0000000000000","PERIAPSIS":"537.756","MEAN_ELEMENT_THEORY":"SGP4","INCLINATION":"53.2182","REV_AT_EPOCH":"3302","ARG_OF_PERICENTER":"25.2049","EPHEMERIS_TYPE":"0","DECAY_DATE":null,"APOAPSIS":"541.725","MEAN_MOTION_DOT":"0.00001851","FILE":"3702726","SEMIMAJOR_AXIS":"6917.875","ELEMENT_SET_NO":"999","EPOCH":"2022-12-15T15:10:58.142496","BSTAR":"0.00013437000000","OBJECT_NAME":"STARLINK-3934","CENTER_NAME":"EARTH","COUNTRY_CODE":"US","NORAD_CAT_ID":"52675","REF_FRAME":"TEME","GP_ID":"220528427","TLE_LINE2":"2 52675  53.2182  41.5980 0002869  25.2049 334.9082 15.08841652 33029","OBJECT_TYPE":"PAYLOAD"},{"OBJECT_ID":"2022-053W","TLE_LINE1":"1 52676U 22053W   22349.57281457  .00002151  00000-0  15320-3 0  9990","ECCENTRICITY":"0.00021230","LAUNCH_DATE":"2022-05-18","MEAN_MOTION":"15.08844751","RCS_SIZE":"LARGE","TIME_SYSTEM":"UTC","CLASSIFICATION_TYPE":"U","MEAN_ANOMALY":"333.3273","MEAN_MOTION_DDOT":"0.0000000000000","SITE":"AFETR","RA_OF_ASC_NODE":"51.8794","PERIOD":"95.437","MEAN_ELEMENT_THEORY":"SGP4","PERIAPSIS":"538.262","INCLINATION":"53.2172","DECAY_DATE":null,"APOAPSIS":"541.200","MEAN_MOTION_DOT":"0.00002151","FILE":"3702025","EPHEMERIS_TYPE":"0","ARG_OF_PERICENTER":"26.7829","REV_AT_EPOCH":"3288","EPOCH":"2022-12-15T13:44:51.178848","OBJECT_NAME":"STARLINK-4006","BSTAR":"0.00015320000000","ELEMENT_SET_NO":"999","SEMIMAJOR_AXIS":"6917.866","NORAD_CAT_ID":"52676","REF_FRAME":"TEME","COUNTRY_CODE":"US","CENTER_NAME":"EARTH","GP_ID":"220489320","TLE_LINE2":"2 52676  53.2172  51.8794 0002123  26.7829 333.3273 15.08844751 32882","OBJECT_TYPE":"PAYLOAD"},{"REV_AT_EPOCH":"3299","ARG_OF_PERICENTER":"31.9148","EPHEMERIS_TYPE":"0","DECAY_DATE":null,"APOAPSIS":"541.340","MEAN_MOTION_DOT":"0.00000421","FILE":"3702726","SEMIMAJOR_AXIS":"6917.855","ELEMENT_SET_NO":"999","EPOCH":"2022-12-15T13:24:58.215168","BSTAR":"0.00004454700000","OBJECT_NAME":"STARLINK-4028","CENTER_NAME":"EARTH","COUNTRY_CODE":"US","NORAD_CAT_ID":"52677","REF_FRAME":"TEME","GP_ID":"220529928","TLE_LINE2":"2 52677  53.2176  41.9277 0002342  31.9148 328.1986 15.08848296 32991","OBJECT_TYPE":"PAYLOAD","MEAN_MOTION":"15.08848296","RCS_SIZE":"MEDIUM","OBJECT_ID":"2022-053X","LAUNCH_DATE":"2022-05-18","TLE_LINE1":"1 52677U 22053X   22349.55900712  .00000421  00000-0  44547-4 0  9993","ECCENTRICITY":"0.00023420","CLASSIFICATION_TYPE":"U","MEAN_ANOMALY":"328.1986","TIME_SYSTEM":"UTC","PERIOD":"95.437","RA_OF_ASC_NODE":"41.9277","SITE":"AFETR","MEAN_MOTION_DDOT":"0.0000000000000","PERIAPSIS":"538.100","MEAN_ELEMENT_THEORY":"SGP4","INCLINATION":"53.2176"},{"REV_AT_EPOCH":"3301","EPHEMERIS_TYPE":"0","ARG_OF_PERICENTER":"20.4980","DECAY_DATE":null,"APOAPSIS":"541.829","FILE":"3702025","MEAN_MOTION_DOT":"-0.00000236","SEMIMAJOR_AXIS":"6917.872","ELEMENT_SET_NO":"999","EPOCH":"2022-12-15T13:36:57.435552","BSTAR":"0.00000331480000","OBJECT_NAME":"STARLINK-4074","CENTER_NAME":"EARTH","COUNTRY_CODE":"US","NORAD_CAT_ID":"52678","REF_FRAME":"TEME","TLE_LINE2":"2 52678  53.2179  41.8938 0003025  20.4980 339.6133 15.08842862 33012","GP_ID":"220488819","OBJECT_TYPE":"PAYLOAD","RCS_SIZE":"LARGE","MEAN_MOTION":"15.08842862","OBJECT_ID":"2022-053Y","LAUNCH_DATE":"2022-05-18","TLE_LINE1":"1 52678U 22053Y   22349.56733143 -.00000236  00000-0  33148-5 0  9998","ECCENTRICITY":"0.00030250","CLASSIFICATION_TYPE":"U","MEAN_ANOMALY":"339.6133","TIME_SYSTEM":"UTC","RA_OF_ASC_NODE":"41.8938","PERIOD":"95.437","MEAN_MOTION_DDOT":"0.0000000000000","SITE":"AFETR","MEAN_ELEMENT_THEORY":"SGP4","PERIAPSIS":"537.644","INCLINATION":"53.2179"},{"REF_FRAME":"TEME","NORAD_CAT_ID":"52679","COUNTRY_CODE":"US","CENTER_NAME":"EARTH","OBJECT_TYPE":"PAYLOAD","GP_ID":"220528927","TLE_LINE2":"2 52679  53.2167  41.6865 0002277  32.3399 327.7732 15.08847069 32983","FILE":"3702726","MEAN_MOTION_DOT":"0.00002606","APOAPSIS":"541.299","DECAY_DATE":null,"EPHEMERIS_TYPE":"0","ARG_OF_PERICENTER":"32.3399","REV_AT_EPOCH":"3298","OBJECT_NAME":"STARLINK-4031","BSTAR":"0.00018173000000","EPOCH":"2022-12-15T14:44:28.219200","ELEMENT_SET_NO":"999","SEMIMAJOR_AXIS":"6917.859","SITE":"AFETR","MEAN_MOTION_DDOT":"0.0000000000000","PERIOD":"95.437","RA_OF_ASC_NODE":"41.6865","INCLINATION":"53.2167","PERIAPSIS":"538.149","MEAN_ELEMENT_THEORY":"SGP4","ECCENTRICITY":"0.00022770","TLE_LINE1":"1 52679U 22053Z   22349.61421550  .00002606  00000-0  18173-3 0  9992","LAUNCH_DATE":"2022-05-18","OBJECT_ID":"2022-053Z","RCS_SIZE":"LARGE","MEAN_MOTION":"15.08847069","TIME_SYSTEM":"UTC","MEAN_ANOMALY":"327.7732","CLASSIFICATION_TYPE":"U"}];
